{
  "links" : {
    "next" : "https://api.nasa.gov/neo/rest/v1/feed?start_date=2008-02-09&end_date=2008-02-09&detailed=true&api_key=t0TVs3DtDT2H8Oy2Zy8m2eVrNsAVKAexjcZXUckd",
    "prev" : "https://api.nasa.gov/neo/rest/v1/feed?start_date=2008-02-07&end_date=2008-02-07&detailed=true&api_key=t0TVs3DtDT2H8Oy2Zy8m2eVrNsAVKAexjcZXUckd",
    "self" : "https://api.nasa.gov/neo/rest/v1/feed?start_date=2008-02-08&end_date=2008-02-08&detailed=true&api_key=t0TVs3DtDT2H8Oy2Zy8m2eVrNsAVKAexjcZXUckd"
  },
  "element_count" : 9,
  "near_earth_objects" : {
    "2008-02-08" : [ {
      "links" : {
        "self" : "https://api.nasa.gov/neo/rest/v1/neo/3402647?api_key=t0TVs3DtDT2H8Oy2Zy8m2eVrNsAVKAexjcZXUckd"
      },
      "neo_reference_id" : "3402647",
      "name" : "(2008 CJ119)",
      "nasa_jpl_url" : "http://ssd.jpl.nasa.gov/sbdb.cgi?sstr=3402647",
      "absolute_magnitude_h" : 21.8,
      "estimated_diameter" : {
        "kilometers" : {
          "estimated_diameter_min" : 0.1160259082,
          "estimated_diameter_max" : 0.2594418179
        },
        "meters" : {
          "estimated_diameter_min" : 116.0259082094,
          "estimated_diameter_max" : 259.4418179074
        },
        "miles" : {
          "estimated_diameter_min" : 0.0720951346,
          "estimated_diameter_max" : 0.1612096218
        },
        "feet" : {
          "estimated_diameter_min" : 380.6624406898,
          "estimated_diameter_max" : 851.1870938635
        }
      },
      "is_potentially_hazardous_asteroid" : false,
      "close_approach_data" : [ {
        "close_approach_date" : "2008-02-08",
        "epoch_date_close_approach" : 1202457600000,
        "relative_velocity" : {
          "kilometers_per_second" : "1.9569783318",
          "kilometers_per_hour" : "7045.1219943685",
          "miles_per_hour" : "4377.5648303342"
        },
        "miss_distance" : {
          "astronomical" : "0.2379394596",
          "lunar" : "92.5584487915",
          "kilometers" : "35595236",
          "miles" : "22117854"
        },
        "orbiting_body" : "Earth"
      } ],
      "orbital_data" : {
        "orbit_id" : "13",
        "orbit_determination_date" : "2017-04-06 09:04:19",
        "orbit_uncertainty" : "1",
        "minimum_orbit_intersection" : ".219831",
        "jupiter_tisserand_invariant" : "3.964",
        "epoch_osculation" : "2458000.5",
        "eccentricity" : ".3406819850276999",
        "semi_major_axis" : "1.823869946895678",
        "inclination" : "3.533539344476568",
        "ascending_node_longitude" : ".9075575863002237",
        "orbital_period" : "899.682406283594",
        "perihelion_distance" : "1.202510312954893",
        "perihelion_argument" : "142.8891387397098",
        "aphelion_distance" : "2.445229580836463",
        "perihelion_time" : "2458114.660814686930",
        "mean_anomaly" : "314.3195543224393",
        "mean_motion" : ".4001412025906866",
        "equinox" : "J2000"
      }
    }, {
      "links" : {
        "self" : "https://api.nasa.gov/neo/rest/v1/neo/3536565?api_key=t0TVs3DtDT2H8Oy2Zy8m2eVrNsAVKAexjcZXUckd"
      },
      "neo_reference_id" : "3536565",
      "name" : "(2010 NM)",
      "nasa_jpl_url" : "http://ssd.jpl.nasa.gov/sbdb.cgi?sstr=3536565",
      "absolute_magnitude_h" : 24.5,
      "estimated_diameter" : {
        "kilometers" : {
          "estimated_diameter_min" : 0.0334622374,
          "estimated_diameter_max" : 0.0748238376
        },
        "meters" : {
          "estimated_diameter_min" : 33.4622374455,
          "estimated_diameter_max" : 74.8238376074
        },
        "miles" : {
          "estimated_diameter_min" : 0.0207924639,
          "estimated_diameter_max" : 0.0464933628
        },
        "feet" : {
          "estimated_diameter_min" : 109.7842471007,
          "estimated_diameter_max" : 245.4850393757
        }
      },
      "is_potentially_hazardous_asteroid" : false,
      "close_approach_data" : [ {
        "close_approach_date" : "2008-02-08",
        "epoch_date_close_approach" : 1202457600000,
        "relative_velocity" : {
          "kilometers_per_second" : "11.8899676355",
          "kilometers_per_hour" : "42803.8834878954",
          "miles_per_hour" : "26596.6686039092"
        },
        "miss_distance" : {
          "astronomical" : "0.2125610166",
          "lunar" : "82.6862335205",
          "kilometers" : "31798674",
          "miles" : "19758780"
        },
        "orbiting_body" : "Earth"
      } ],
      "orbital_data" : {
        "orbit_id" : "8",
        "orbit_determination_date" : "2017-04-06 08:57:09",
        "orbit_uncertainty" : "7",
        "minimum_orbit_intersection" : ".0506822",
        "jupiter_tisserand_invariant" : "6.172",
        "epoch_osculation" : "2458000.5",
        "eccentricity" : ".1515093066333347",
        "semi_major_axis" : ".9723468310524899",
        "inclination" : "16.11294968443807",
        "ascending_node_longitude" : "105.091306901407",
        "orbital_period" : "350.2113617380462",
        "perihelion_distance" : ".8250272368726068",
        "perihelion_argument" : "318.5042435523145",
        "aphelion_distance" : "1.119666425232373",
        "perihelion_time" : "2457957.383638391615",
        "mean_anomaly" : "44.32149231819783",
        "mean_motion" : "1.027950658748974",
        "equinox" : "J2000"
      }
    }, {
      "links" : {
        "self" : "https://api.nasa.gov/neo/rest/v1/neo/3710019?api_key=t0TVs3DtDT2H8Oy2Zy8m2eVrNsAVKAexjcZXUckd"
      },
      "neo_reference_id" : "3710019",
      "name" : "(2015 CO3)",
      "nasa_jpl_url" : "http://ssd.jpl.nasa.gov/sbdb.cgi?sstr=3710019",
      "absolute_magnitude_h" : 21.3,
      "estimated_diameter" : {
        "kilometers" : {
          "estimated_diameter_min" : 0.1460679643,
          "estimated_diameter_max" : 0.3266178974
        },
        "meters" : {
          "estimated_diameter_min" : 146.0679642714,
          "estimated_diameter_max" : 326.6178974458
        },
        "miles" : {
          "estimated_diameter_min" : 0.090762397,
          "estimated_diameter_max" : 0.2029508896
        },
        "feet" : {
          "estimated_diameter_min" : 479.2256199,
          "estimated_diameter_max" : 1071.581062656
        }
      },
      "is_potentially_hazardous_asteroid" : false,
      "close_approach_data" : [ {
        "close_approach_date" : "2008-02-08",
        "epoch_date_close_approach" : 1202457600000,
        "relative_velocity" : {
          "kilometers_per_second" : "17.0883642315",
          "kilometers_per_hour" : "61518.1112332693",
          "miles_per_hour" : "38224.9619493612"
        },
        "miss_distance" : {
          "astronomical" : "0.2668544048",
          "lunar" : "103.8063659668",
          "kilometers" : "39920852",
          "miles" : "24805666"
        },
        "orbiting_body" : "Earth"
      } ],
      "orbital_data" : {
        "orbit_id" : "16",
        "orbit_determination_date" : "2017-04-06 08:35:45",
        "orbit_uncertainty" : "5",
        "minimum_orbit_intersection" : ".191656",
        "jupiter_tisserand_invariant" : "4.501",
        "epoch_osculation" : "2458000.5",
        "eccentricity" : ".287896402938304",
        "semi_major_axis" : "1.448157318271996",
        "inclination" : "26.0689931402394",
        "ascending_node_longitude" : "147.8287304739325",
        "orbital_period" : "636.5346386101847",
        "perihelion_distance" : "1.031238035452708",
        "perihelion_argument" : "290.5599399124144",
        "aphelion_distance" : "1.865076601091285",
        "perihelion_time" : "2458275.459199467669",
        "mean_anomaly" : "204.4934402556849",
        "mean_motion" : ".5655623090457844",
        "equinox" : "J2000"
      }
    } ]
  }
}